{
  "type": "FeatureCollection",
  "features": [
    {
      "type": "Feature",
      "properties": {
        "norad_id": 34765,
        "name": "IRIDIUM 33 DEB",
        "group": "iridium-33-debris",
        "lat": 37.45283014802314,
        "lon": 39.3449772627362,
        "alt_km": 763.7956934220483,
        "timestamp": "2025-12-03T22:42:33.018024+00:00",
        "meta_object_name": "IRIDIUM 33 DEB",
        "meta_object_id": "1997-051LJ",
        "meta_epoch": "2025-12-02T05:08:41.186976",
        "meta_mean_motion": 14.40418764,
        "meta_eccentricity": 0.00145508,
        "meta_inclination": 86.3401,
        "meta_ra_of_asc_node": 37.2773,
        "meta_arg_of_pericenter": 249.3549,
        "meta_mean_anomaly": 173.3707,
        "meta_ephemeris_type": 0,
        "meta_classification_type": "U",
        "meta_norad_cat_id": 34765,
        "meta_element_set_no": 999,
        "meta_rev_at_epoch": 87462,
        "meta_bstar": 0.00049787542,
        "meta_mean_motion_dot": 1.602e-05,
        "meta_mean_motion_ddot": 0,
        "tle_line1": "1 34765U 97051LJ  25336.21436559  .00001602  00000+0  49788-3 0  9998",
        "tle_line2": "2 34765  86.3401  37.2773 0014550 249.3549 173.3707 14.40418764874623"
      },
      "geometry": {
        "type": "Point",
        "coordinates": [
          39.3449772627362,
          37.45283014802314
        ]
      }
    },
    {
      "type": "Feature",
      "properties": {
        "norad_id": 34833,
        "name": "IRIDIUM 33 DEB",
        "group": "iridium-33-debris",
        "lat": 52.44881143475956,
        "lon": -129.9226485117041,
        "alt_km": 698.1326530103497,
        "timestamp": "2025-12-03T22:42:33.018034+00:00",
        "meta_object_name": "IRIDIUM 33 DEB",
        "meta_object_id": "1997-051MH",
        "meta_epoch": "2025-12-02T23:15:35.069760",
        "meta_mean_motion": 14.52273941,
        "meta_eccentricity": 0.00215243,
        "meta_inclination": 86.3939,
        "meta_ra_of_asc_node": 55.2036,
        "meta_arg_of_pericenter": 128.6325,
        "meta_mean_anomaly": 293.7121,
        "meta_ephemeris_type": 0,
        "meta_classification_type": "U",
        "meta_norad_cat_id": 34833,
        "meta_element_set_no": 999,
        "meta_rev_at_epoch": 87573,
        "meta_bstar": 0.0011259064,
        "meta_mean_motion_dot": 4.607e-05,
        "meta_mean_motion_ddot": 0,
        "tle_line1": "1 34833U 97051MH  25336.96915590  .00004607  00000+0  11259-2 0  9992",
        "tle_line2": "2 34833  86.3939  55.2036 0021524 128.6325 293.7121 14.52273941875736"
      },
      "geometry": {
        "type": "Point",
        "coordinates": [
          -129.9226485117041,
          52.44881143475956
        ]
      }
    },
    {
      "type": "Feature",
      "properties": {
        "norad_id": 34870,
        "name": "IRIDIUM 33 DEB",
        "group": "iridium-33-debris",
        "lat": 61.818547015885585,
        "lon": -34.970088822501324,
        "alt_km": 645.0964941289594,
        "timestamp": "2025-12-03T22:42:33.018043+00:00",
        "meta_object_name": "IRIDIUM 33 DEB",
        "meta_object_id": "1997-051MQ",
        "meta_epoch": "2025-12-01T05:36:37.151712",
        "meta_mean_motion": 14.76055324,
        "meta_eccentricity": 0.0014764,
        "meta_inclination": 86.3102,
        "meta_ra_of_asc_node": 319.3536,
        "meta_arg_of_pericenter": 227.1347,
        "meta_mean_anomaly": 190.7112,
        "meta_ephemeris_type": 0,
        "meta_classification_type": "U",
        "meta_norad_cat_id": 34870,
        "meta_element_set_no": 999,
        "meta_rev_at_epoch": 88741,
        "meta_bstar": 0.0019021,
        "meta_mean_motion_dot": 0.00013168,
        "meta_mean_motion_ddot": 0,
        "tle_line1": "1 34870U 97051MQ  25335.23376333  .00013168  00000+0  19021-2 0  9995",
        "tle_line2": "2 34870  86.3102 319.3536 0014764 227.1347 190.7112 14.76055324887418"
      },
      "geometry": {
        "type": "Point",
        "coordinates": [
          -34.970088822501324,
          61.818547015885585
        ]
      }
    },
    {
      "type": "Feature",
      "properties": {
        "norad_id": 34896,
        "name": "IRIDIUM 33 DEB",
        "group": "iridium-33-debris",
        "lat": -41.876410974828204,
        "lon": 153.9300649692707,
        "alt_km": 665.0800224573468,
        "timestamp": "2025-12-03T22:42:33.018053+00:00",
        "meta_object_name": "IRIDIUM 33 DEB",
        "meta_object_id": "1997-051MY",
        "meta_epoch": "2025-12-02T06:27:15.824160",
        "meta_mean_motion": 14.66099888,
        "meta_eccentricity": 0.0023761,
        "meta_inclination": 86.3285,
        "meta_ra_of_asc_node": 331.3819,
        "meta_arg_of_pericenter": 253.426,
        "meta_mean_anomaly": 121.6385,
        "meta_ephemeris_type": 0,
        "meta_classification_type": "U",
        "meta_norad_cat_id": 34896,
        "meta_element_set_no": 999,
        "meta_rev_at_epoch": 87466,
        "meta_bstar": 0.0012182,
        "meta_mean_motion_dot": 6.738e-05,
        "meta_mean_motion_ddot": 0,
        "tle_line1": "1 34896U 97051MY  25336.26893315  .00006738  00000+0  12182-2 0  9997",
        "tle_line2": "2 34896  86.3285 331.3819 0023761 253.4260 121.6385 14.66099888874669"
      },
      "geometry": {
        "type": "Point",
        "coordinates": [
          153.9300649692707,
          -41.876410974828204
        ]
      }
    },
    {
      "type": "Feature",
      "properties": {
        "norad_id": 34926,
        "name": "IRIDIUM 33 DEB",
        "group": "iridium-33-debris",
        "lat": -28.807305139145033,
        "lon": 10.217738077618408,
        "alt_km": 665.3815829468003,
        "timestamp": "2025-12-03T22:42:33.018063+00:00",
        "meta_object_name": "IRIDIUM 33 DEB",
        "meta_object_id": "1997-051NF",
        "meta_epoch": "2025-12-02T20:58:36.078816",
        "meta_mean_motion": 14.53691359,
        "meta_eccentricity": 0.00769886,
        "meta_inclination": 86.1332,
        "meta_ra_of_asc_node": 12.8456,
        "meta_arg_of_pericenter": 326.4034,
        "meta_mean_anomaly": 157.1189,
        "meta_ephemeris_type": 0,
        "meta_classification_type": "U",
        "meta_norad_cat_id": 34926,
        "meta_element_set_no": 999,
        "meta_rev_at_epoch": 86313,
        "meta_bstar": 0.0065509461,
        "meta_mean_motion_dot": 0.00028633,
        "meta_mean_motion_ddot": 0,
        "tle_line1": "1 34926U 97051NF  25336.87402869  .00028633  00000+0  65509-2 0  9997",
        "tle_line2": "2 34926  86.1332  12.8456 0076988 326.4034 157.1189 14.53691359863134"
      },
      "geometry": {
        "type": "Point",
        "coordinates": [
          10.217738077618408,
          -28.807305139145033
        ]
      }
    },
    {
      "type": "Feature",
      "properties": {
        "norad_id": 34985,
        "name": "IRIDIUM 33 DEB",
        "group": "iridium-33-debris",
        "lat": 60.51289473965184,
        "lon": -125.81608660516348,
        "alt_km": 755.6596909993759,
        "timestamp": "2025-12-03T22:42:33.018072+00:00",
        "meta_object_name": "IRIDIUM 33 DEB",
        "meta_object_id": "1997-051NR",
        "meta_epoch": "2025-12-03T05:45:23.488416",
        "meta_mean_motion": 14.41938778,
        "meta_eccentricity": 0.0019898,
        "meta_inclination": 86.3698,
        "meta_ra_of_asc_node": 60.9312,
        "meta_arg_of_pericenter": 252.9312,
        "meta_mean_anomaly": 162.0944,
        "meta_ephemeris_type": 0,
        "meta_classification_type": "U",
        "meta_norad_cat_id": 34985,
        "meta_element_set_no": 999,
        "meta_rev_at_epoch": 87038,
        "meta_bstar": 0.0010646,
        "meta_mean_motion_dot": 3.513e-05,
        "meta_mean_motion_ddot": 0,
        "tle_line1": "1 34985U 97051NR  25337.23985519  .00003513  00000+0  10646-2 0  9993",
        "tle_line2": "2 34985  86.3698  60.9312 0019898 252.9312 162.0944 14.41938778870385"
      },
      "geometry": {
        "type": "Point",
        "coordinates": [
          -125.81608660516348,
          60.51289473965184
        ]
      }
    },
    {
      "type": "Feature",
      "properties": {
        "norad_id": 35051,
        "name": "IRIDIUM 33 DEB",
        "group": "iridium-33-debris",
        "lat": -55.50817357503044,
        "lon": -161.93748881044598,
        "alt_km": 744.7588110641282,
        "timestamp": "2025-12-03T22:42:33.018082+00:00",
        "meta_object_name": "IRIDIUM 33 DEB",
        "meta_object_id": "1997-051NX",
        "meta_epoch": "2025-12-02T20:44:20.358528",
        "meta_mean_motion": 14.47524123,
        "meta_eccentricity": 0.00104766,
        "meta_inclination": 86.3255,
        "meta_ra_of_asc_node": 13.167,
        "meta_arg_of_pericenter": 117.6322,
        "meta_mean_anomaly": 242.5946,
        "meta_ephemeris_type": 0,
        "meta_classification_type": "U",
        "meta_norad_cat_id": 35051,
        "meta_element_set_no": 999,
        "meta_rev_at_epoch": 86853,
        "meta_bstar": 0.00083073982,
        "meta_mean_motion_dot": 3.075e-05,
        "meta_mean_motion_ddot": 0,
        "tle_line1": "1 35051U 97051NX  25336.86412452  .00003075  00000+0  83074-3 0  9996",
        "tle_line2": "2 35051  86.3255  13.1670 0010476 117.6322 242.5946 14.47524123868538"
      },
      "geometry": {
        "type": "Point",
        "coordinates": [
          -161.93748881044598,
          -55.50817357503044
        ]
      }
    }
  ]
}